#dP2022  8 23  0  0  0.00000000      96 __u+U ITR00 EXT  IAC
## 2224 172800.00000000   900.00000000 59814 0.0000000000000
+  117   C06C07C08C09C10C11C12C13C14C16C19C20C21C22C23C24C25
+        C26C27C28C29C30C32C33C34C35C36C37C38C39C40C41C42C43
+        C44C45C46E01E02E03E04E05E07E08E09E10E11E12E13E14E15
+        E18E19E21E24E25E26E27E30E31E33E34E36G01G02G03G04G05
+        G06G07G08G09G10G11G12G13G14G15G16G17G18G19G20G21G22
+        G23G24G25G26G27G28G29G30G31G32J02J03R01R02R03R04R05
+        R07R08R09R11R12R13R14R15R17R18R19R20R21R24R25  0  0
++         8 10  8 10 10  7  8  8  7  9  9  7  7  8  8  8  9
++         9  9  9  7  8  8  8  8  7  8  9  8  9 10  7  9  8
++         7  8  9  7  7  9  7  9  6  6  7  6  7  8  7  8  8
++         7  8  8  8  7  6  7  8  8  7  8  7  8  6  6  8  7
++         7  8  7  9  8  7  7  7  6  7  8  8  8  7  7  8  8
++         7  8  7  7  7  7  8  7  7  8  9  9  8  8  8 10  7
++         7  7  8  9  8  9  9  7  7  8  9  9  8  8  9  0  0
%c M  cc GPS ccc cccc cccc cccc cccc ccccc ccccc ccccc ccccc
%c cc cc ccc ccc cccc cccc cccc cccc ccccc ccccc ccccc ccccc
%f  0.0000000  0.000000000  0.00000000000  0.000000000000000
%f  0.0000000  0.000000000  0.00000000000  0.000000000000000
%i    0    0    0    0      0      0      0      0         0
%i    0    0    0    0      0      0      0      0         0
/* IAC                                ULTRA-RAPID PREDICTION
/* S/V CLOCKS ARE ALIGNED TO GNSS TIME                      
/* G:C1WC2W R:C1PC2P E:C1XC5X C:C2IC6I J:C1CC2S             
/* PCV:IGS14_2218 OL/AL:FES2004  NONE     YN ORB:CoN CLK:CoN
*  2022 08 23  9 15  0.00000000
PC06  -2112.122425  35297.720621  23149.451929    673.554414
PC07 -13186.634693  25890.151982 -30550.302102    -40.996096
PC08 -17321.324524  36957.416494  10167.559997    449.918730
PC09   3447.299865  39159.018078  16291.864765   -886.355236
PC10  -5439.012891  26749.619544 -31894.809590    105.468328
PC11  12302.770262  -9379.286825  23289.569334   -452.602583
PC12  19095.441308   9574.860806  17976.331839   -542.085889
PC13 -11474.411854  37226.827518  15895.294443     60.461966
PC14  22849.794605  -9289.569220 -12984.211620    607.365714
PC16  -4360.222007  33218.100033  25945.359866    141.649432
PC19 -14567.455906  13608.736975  19554.662862   -491.648018
PC20 -26891.390604   4511.236727   6020.617763    233.345691
PC21  23822.706086   7998.981865  12118.372703   -243.980023
PC22   6695.357736  15255.634434  22375.792718   -298.353508
PC23   1176.578909 -23671.749679  14745.681087   -970.451346
PC24  19673.727803  -8967.169336 -17656.546204   -969.854838
PC25  13840.158112 -24217.837611  -1151.538814   -688.851944
PC26  13786.352816   8715.628821 -22649.458568    691.179682
PC27 -18855.794496 -17330.480910 -11097.464334      9.628841
PC28 -10003.511943 -25402.287910   5808.344234      4.513999
PC29  -4796.822656  18682.495662 -20173.045734      3.644159
PC30 -17440.707200    685.047466 -21778.402280    502.360881
PC32 -23862.615007  -7848.898844 -12158.451629   -819.037474
PC33  14558.534517 -13681.400595 -19478.709987   -479.797822
PC34  17003.181915  -1809.040149  22043.731808   -329.932098
PC35   9941.920714  25127.885940  -7029.703257    425.256448
PC36 -14729.503809  23638.220517   1736.252998   -968.043467
PC37 -12793.524801 -10322.996697  22572.883687   -938.815782
PC38 -21074.784118  36348.955860   2022.904320     19.132012
PC39  -7069.510304  29404.501077  29477.218623     -0.292933
PC40 -19040.310791  19206.816207 -32410.711711     -2.806359
PC41  -6184.861191 -15334.719487 -22435.142729    -11.431502
PC42  27192.967793  -3812.268306  -4876.678289   -164.253930
PC43   5537.622234 -18175.974705  20422.701568     10.202966
PC44  19473.254916  16811.750543  10830.681789     26.587119
PC45   -968.714455  23471.946090 -15036.875236    842.226404
PC46 -19672.110066  10624.149567  16686.421520   -501.716640
PE01 -26841.933086  10998.718005   5898.093148   -540.162872
PE02  26828.267880 -11143.540395  -5705.737071    320.122395
PE03  23266.154961  -1609.719639 -18224.558253   -592.356479
PE04  -6983.003218  15594.285408  24174.898369  -1099.575395
PE05  26228.195971  13644.016186  -1411.405786   -150.895889
PE07 -13903.679984 -20713.807973 -15937.307179   -699.073159
PE08   6721.202133 -15564.806418 -24265.789882   -586.123765
PE09  13922.306458  20590.017463  16063.177573   -632.782254
PE10  -1018.814552  29476.729247  -2433.293433   -471.774815
PE11   5567.246676  27961.004995   7954.702903   2522.959687
PE12  -7195.834813  26243.100260 -11667.123937   -129.996793
PE13  -5154.920813 -28232.719476  -7256.430442    430.351362
PE14  -4741.918161 -20427.252467  15738.789586  -1741.393267
PE15   7199.283638 -26153.710210  11850.354708    725.098541
PE18  -7270.867174  18742.888160 -22981.469732  -1062.217083
PE19 -24521.114260   -652.542023  16571.096126  -4732.188102
PE21 -21333.622769  -3486.884458  20228.403953   -753.453961
PE24   2121.962320  17583.998569 -23718.717914   -796.327215
PE25  21141.989672   3710.861428 -20369.511867   -585.455300
PE26 -14735.828518 -12819.190994 -22247.518463  -1527.677889
PE27  -3279.942947 -17058.525828  23977.727189   -374.881666
PE30  17326.070178 -20276.816578  12848.386029   -777.280219
PE31 -16538.943132  20452.663759 -13563.033069   -502.171404
PE33 -15236.761793   8655.563732 -23857.488526   -453.689187
PE34  15177.986047  -8912.587320  23789.789260     -0.823697
PE36  14370.892686  13732.305180  21928.854317   -420.806430
PG01  13058.124516 -14549.278821  17504.132605    296.946901
PG02 -14803.680841    868.322438 -21420.778747   -648.325979
PG03  23328.174501 -12421.373637  -2049.688770   -337.537974
PG04  16514.155284  -5173.067559 -20171.060844   -129.196715
PG05 -24132.105550   4209.178384 -10613.750371    -93.927881
PG06  -7119.302868 -21505.345399 -13747.122089    435.382489
PG07   5685.655627 -25151.374658  -4734.318278    312.834615
PG08  21962.308056   2080.435509  15001.623095    -81.627339
PG09   5697.574980 -14535.084729 -21559.094573   -304.952193
PG10   1900.657247  15365.406627  21690.220491   -538.021896
PG11 -12837.849595 -10992.086767 -20498.641110    -12.264865
PG12 -24540.903276   9995.772983   -805.409458   -266.729314
PG13 -22015.713273 -11730.585392   9218.644892    373.312386
PG14    462.295721 -16372.909247  20895.060911   -107.950498
PG15 -22238.615854    436.058216  14303.406291    -34.996709
PG16  22088.394528   3022.125363 -15050.246692   -521.616072
PG17  -8438.758078 -20106.411639  15559.027579    651.473446
PG18  -5801.597775  25449.729551  -4525.506112     72.769208
PG19 -16427.923010 -19982.180153   6325.892544    200.924665
PG20 -17151.360639  -5384.187187 -19473.452193    492.476616
PG21  15267.170408  -4436.374998  21806.221913    160.238537
PG22  17921.382232  19236.032402   4808.067736    314.792566
PG23  -9332.963985  17882.547746  17204.510683    -37.772610
PG24 -14297.762990  10618.933700  19265.548811    159.651220
PG25 -16744.336050  17051.759183 -11580.115256    363.976516
PG26  15139.733602   8703.194909 -20180.374393    225.080931
PG27  23221.915501  12480.202729   4440.182265    217.747856
PG28  -8870.765555 -12895.969352  21941.756368    340.588858
PG29  -6966.108239  13308.396853 -21945.413608   -545.259317
PG30  -1520.367443 -25804.049497   5584.394356   -536.248760
PG31   8760.837422  19694.496646 -15340.775933   -190.684262
PG32  12260.338666  19700.855827  13243.505589   -211.850764
PJ02 -36306.888300  20570.308013  -1602.186394     -3.634389
PJ03 -19340.397265  25400.356458 -22914.169474     -0.878126
PR01 -25116.608481  -4321.688418  -1224.566221     13.589081
PR02 -18618.340616   4651.249328  16807.177179    527.716367
PR03  -1412.439523  10843.584142  23086.056977     62.373997
PR04  16199.343826  10739.999970  16550.441108    154.921468
PR05  25017.468312   4967.442303    905.917617     98.409084
PR07    688.252524 -10926.652252 -23002.931998     39.812783
PR08 -16351.619746 -10693.336046 -16330.023319    -66.845846
PR09  17581.037430 -17482.186564  -5799.379563     72.732575
PR11  -3115.544510 -12693.449215  21916.746002     29.585481
PR12 -15432.137718   3674.556501  20002.527172     20.344694
PR13 -17889.197105  16672.125312   7256.013288    -26.019142
PR14  -9723.992427  20652.543891 -11386.499832     24.442757
PR15   3790.094889  12097.473070 -22109.317376     94.080578
PR17   2458.758898  22472.932659 -11763.261626    554.855148
PR18  10365.942700  22821.701708   4858.654614     38.878755
PR19  12575.895176  12673.565079  18207.350378   -201.011453
PR20   7814.680643  -8589.538275  22710.569925    -77.043472
PR21  -3274.382961 -23098.569503  10354.091593   -327.839342
PR24  -7687.039624   9632.694345 -22317.048262    110.483269
PR25  -9758.386425 -22918.554280  -5454.943549     12.405998
EOF
